*******************************************************************************
Ephemeris / WWW_USER Mon Mar 24 08:18:51 2025 Pasadena, USA      / Horizons    
*******************************************************************************
Target body name: (2018 UG3)                      {source: JPL#15}
Center body name: Earth (399)                     {source: DE441}
Center-site name: Mauna Kea
*******************************************************************************
Start time      : A.D. 2018-Sep-25 04:25:00.0000 UT      
Stop  time      : A.D. 2018-Sep-25 16:02:00.0000 UT      
Step-size       : 1 minutes
*******************************************************************************
Target pole/equ : undefined
Target radii    : undefined                                                    
Center geodetic : 204.5278, 19.8260847, 4.21024   {E-lon(deg),Lat(deg),Alt(km)}
Center cylindric: 204.5278, 6006.35451, 2151.0229 {E-lon(deg),Dxy(km),Dz(km)}
Center pole/equ : ITRF93                          {East-longitude positive}
Center radii    : 6378.137, 6378.137, 6356.752 km {Equator_a, b, pole_c}       
Target primary  : Sun
Vis. interferer : MOON (R_eq= 1737.400) km        {source: DE441}
Rel. light bend : Sun                             {source: DE441}
Rel. lght bnd GM: 1.3271E+11 km^3/s^2                                          
Small-body perts: Yes                             {source: SB441-N16}
Atmos refraction: NO (AIRLESS)
RA format       : HMS
Time format     : CAL 
Calendar mode   : Mixed Julian/Gregorian
RTS-only print  : NO       
EOP file        : eop.250321.p250617                                           
EOP coverage    : DATA-BASED 1962-JAN-20 TO 2025-MAR-21. PREDICTS-> 2025-JUN-16
Units conversion: 1 au= 149597870.700 km, c= 299792.458 km/s, 1 day= 86400.0 s 
Table cut-offs 1: Elevation (-90.0deg=NO ),Airmass (>38.000=NO), Daylight (YES)
Table cut-offs 2: Solar elongation (  0.0,180.0=NO ),Local Hour Angle( 0.0=NO )
Table cut-offs 3: RA/DEC angular rate (     0.0=NO )                           
*******************************************************************************
Initial IAU76/J2000 heliocentric ecliptic osculating elements (au, days, deg.):
  EPOCH=  2458429.5 ! 2018-Nov-07.00 (TDB)         Residual RMS= .46194        
   EC= .4227384440318329   QR= .9585039390071354   TP= 2458393.2526467689      
   OM= 47.27406359171053   W=  314.2704472892426   IN= 6.159551265235018       
  Equivalent ICRF heliocentric cartesian coordinates (au, au/d):
   X= 7.430529944075828E-01  Y= 6.714692173902916E-01  Z= 2.851295671149762E-01
  VX=-1.040372162305418E-02 VY= 1.447630012002514E-02 VZ= 8.505235531163944E-03
Asteroid physical parameters (km, seconds, rotational period in hours):        
   GM= n.a.                RAD= n.a.               ROTPER= n.a.                
   H= 24.5                 G= .150                 B-V= n.a.                   
                           ALBEDO= n.a.            STYP= n.a.                  
*******************************************************************************
 Date__(UT)__HR:MN     R.A._________(ICRF)_________DEC
******************************************************
$$SOE
 2018-Sep-25 12:37  m  16 08 06.777715 -50 43 48.49829
 2018-Sep-25 12:38  m  16 08 06.870372 -50 43 49.33986
 2018-Sep-25 12:39  m  16 08 06.963071 -50 43 50.18211
 2018-Sep-25 12:40  m  16 08 07.055812 -50 43 51.02504
 2018-Sep-25 12:41  m  16 08 07.148594 -50 43 51.86865
 2018-Sep-25 12:42  m  16 08 07.241417 -50 43 52.71294
 2018-Sep-25 12:43  m  16 08 07.334280 -50 43 53.55792
 2018-Sep-25 12:44  m  16 08 07.427183 -50 43 54.40358
 2018-Sep-25 12:45  m  16 08 07.520126 -50 43 55.24993
 2018-Sep-25 12:46  m  16 08 07.613109 -50 43 56.09697
 2018-Sep-25 12:47  m  16 08 07.706130 -50 43 56.94470
 2018-Sep-25 12:48  m  16 08 07.799189 -50 43 57.79312
 2018-Sep-25 12:49  m  16 08 07.892287 -50 43 58.64223
 2018-Sep-25 12:50  m  16 08 07.985423 -50 43 59.49204
 2018-Sep-25 12:51  m  16 08 08.078596 -50 44 00.34253
 2018-Sep-25 12:52  m  16 08 08.171805 -50 44 01.19373
 2018-Sep-25 12:53  m  16 08 08.265052 -50 44 02.04562
 2018-Sep-25 12:54  m  16 08 08.358334 -50 44 02.89821
 2018-Sep-25 12:55  m  16 08 08.451652 -50 44 03.75149
 2018-Sep-25 12:56  m  16 08 08.545005 -50 44 04.60548
 2018-Sep-25 12:57  m  16 08 08.638393 -50 44 05.46017
 2018-Sep-25 12:58  m  16 08 08.731816 -50 44 06.31556
 2018-Sep-25 12:59  m  16 08 08.825273 -50 44 07.17165
 2018-Sep-25 13:00  m  16 08 08.918763 -50 44 08.02845
 2018-Sep-25 13:01  m  16 08 09.012287 -50 44 08.88595
 2018-Sep-25 13:02  m  16 08 09.105844 -50 44 09.74416
 2018-Sep-25 13:03  m  16 08 09.199433 -50 44 10.60307
 2018-Sep-25 13:04  m  16 08 09.293054 -50 44 11.46270
 2018-Sep-25 13:05  m  16 08 09.386707 -50 44 12.32303
 2018-Sep-25 13:06  m  16 08 09.480391 -50 44 13.18408
 2018-Sep-25 13:07  m  16 08 09.574106 -50 44 14.04583
 2018-Sep-25 13:08  m  16 08 09.667851 -50 44 14.90830
 2018-Sep-25 13:09  m  16 08 09.761627 -50 44 15.77148
 2018-Sep-25 13:10  m  16 08 09.855432 -50 44 16.63537
 2018-Sep-25 13:11  m  16 08 09.949266 -50 44 17.49998
 2018-Sep-25 13:12  m  16 08 10.043129 -50 44 18.36531
 2018-Sep-25 13:13  m  16 08 10.137020 -50 44 19.23135
 2018-Sep-25 13:14  m  16 08 10.230939 -50 44 20.09811
 2018-Sep-25 13:15  m  16 08 10.324886 -50 44 20.96559
 2018-Sep-25 13:16  m  16 08 10.418860 -50 44 21.83379
 2018-Sep-25 13:17  m  16 08 10.512861 -50 44 22.70271
 2018-Sep-25 13:18  m  16 08 10.606888 -50 44 23.57235
 2018-Sep-25 13:19  m  16 08 10.700941 -50 44 24.44271
 2018-Sep-25 13:20  m  16 08 10.795019 -50 44 25.31379
 2018-Sep-25 13:21  m  16 08 10.889123 -50 44 26.18560
 2018-Sep-25 13:22  m  16 08 10.983251 -50 44 27.05813
 2018-Sep-25 13:23  m  16 08 11.077403 -50 44 27.93139
 2018-Sep-25 13:24  m  16 08 11.171579 -50 44 28.80537
 2018-Sep-25 13:25  m  16 08 11.265779 -50 44 29.68008
 2018-Sep-25 13:26  m  16 08 11.360002 -50 44 30.55552
 2018-Sep-25 13:27  m  16 08 11.454247 -50 44 31.43168
 2018-Sep-25 13:28  m  16 08 11.548514 -50 44 32.30858
 2018-Sep-25 13:29  m  16 08 11.642803 -50 44 33.18620
 2018-Sep-25 13:30  m  16 08 11.737113 -50 44 34.06455
 2018-Sep-25 13:31  m  16 08 11.831444 -50 44 34.94363
 2018-Sep-25 13:32  m  16 08 11.925796 -50 44 35.82345
 2018-Sep-25 13:33  m  16 08 12.020167 -50 44 36.70399
 2018-Sep-25 13:34  m  16 08 12.114559 -50 44 37.58527
 2018-Sep-25 13:35  m  16 08 12.208969 -50 44 38.46728
 2018-Sep-25 13:36  m  16 08 12.303398 -50 44 39.35003
 2018-Sep-25 13:37  m  16 08 12.397846 -50 44 40.23350
 2018-Sep-25 13:38  m  16 08 12.492311 -50 44 41.11772
 2018-Sep-25 13:39  m  16 08 12.586794 -50 44 42.00267
 2018-Sep-25 13:40  m  16 08 12.681294 -50 44 42.88835
 2018-Sep-25 13:41  m  16 08 12.775811 -50 44 43.77477
 2018-Sep-25 13:42  m  16 08 12.870344 -50 44 44.66193
 2018-Sep-25 13:43  m  16 08 12.964893 -50 44 45.54983
 2018-Sep-25 13:44  m  16 08 13.059457 -50 44 46.43846
 2018-Sep-25 13:45  m  16 08 13.154036 -50 44 47.32783
 2018-Sep-25 13:46  m  16 08 13.248629 -50 44 48.21794
 2018-Sep-25 13:47  m  16 08 13.343237 -50 44 49.10879
 2018-Sep-25 13:48  m  16 08 13.437859 -50 44 50.00038
 2018-Sep-25 13:49  m  16 08 13.532493 -50 44 50.89270
 2018-Sep-25 13:50  m  16 08 13.627141 -50 44 51.78577
 2018-Sep-25 13:51  m  16 08 13.721801 -50 44 52.67958
 2018-Sep-25 13:52  m  16 08 13.816472 -50 44 53.57413
 2018-Sep-25 13:53  m  16 08 13.911156 -50 44 54.46942
 2018-Sep-25 13:54  m  16 08 14.005850 -50 44 55.36546
 2018-Sep-25 13:55  m  16 08 14.100556 -50 44 56.26223
 2018-Sep-25 13:56  m  16 08 14.195271 -50 44 57.15975
 2018-Sep-25 13:57  m  16 08 14.289996 -50 44 58.05801
 2018-Sep-25 13:58  m  16 08 14.384731 -50 44 58.95702
 2018-Sep-25 13:59  m  16 08 14.479475 -50 44 59.85676
 2018-Sep-25 14:00  m  16 08 14.574227 -50 45 00.75725
 2018-Sep-25 14:01  m  16 08 14.668987 -50 45 01.65849
 2018-Sep-25 14:02  m  16 08 14.763755 -50 45 02.56047
 2018-Sep-25 14:03  m  16 08 14.858531 -50 45 03.46319
 2018-Sep-25 14:04  m  16 08 14.953313 -50 45 04.36666
 2018-Sep-25 14:05  m  16 08 15.048101 -50 45 05.27087
 2018-Sep-25 14:06  m  16 08 15.142896 -50 45 06.17582
 2018-Sep-25 14:07  m  16 08 15.237696 -50 45 07.08152
 2018-Sep-25 14:08  m  16 08 15.332501 -50 45 07.98797
 2018-Sep-25 14:09  m  16 08 15.427311 -50 45 08.89516
 2018-Sep-25 14:10  m  16 08 15.522125 -50 45 09.80310
 2018-Sep-25 14:11  m  16 08 15.616943 -50 45 10.71178
 2018-Sep-25 14:12  m  16 08 15.711764 -50 45 11.62120
 2018-Sep-25 14:13  m  16 08 15.806589 -50 45 12.53138
 2018-Sep-25 14:14  m  16 08 15.901415 -50 45 13.44230
 2018-Sep-25 14:15  m  16 08 15.996244 -50 45 14.35396
 2018-Sep-25 14:16  m  16 08 16.091075 -50 45 15.26637
 2018-Sep-25 14:17  m  16 08 16.185907 -50 45 16.17952
 2018-Sep-25 14:18  m  16 08 16.280740 -50 45 17.09343
 2018-Sep-25 14:19  m  16 08 16.375573 -50 45 18.00807
 2018-Sep-25 14:20  m  16 08 16.470406 -50 45 18.92346
 2018-Sep-25 14:21  m  16 08 16.565238 -50 45 19.83960
 2018-Sep-25 14:22  m  16 08 16.660070 -50 45 20.75649
 2018-Sep-25 14:23  m  16 08 16.754900 -50 45 21.67411
 2018-Sep-25 14:24  m  16 08 16.849729 -50 45 22.59249
 2018-Sep-25 14:25  m  16 08 16.944555 -50 45 23.51161
 2018-Sep-25 14:26  m  16 08 17.039379 -50 45 24.43147
 2018-Sep-25 14:27  m  16 08 17.134200 -50 45 25.35208
 2018-Sep-25 14:28  m  16 08 17.229017 -50 45 26.27344
 2018-Sep-25 14:29  m  16 08 17.323830 -50 45 27.19554
 2018-Sep-25 14:30  m  16 08 17.418639 -50 45 28.11838
 2018-Sep-25 14:31  m  16 08 17.513443 -50 45 29.04197
 2018-Sep-25 14:32  m  16 08 17.608242 -50 45 29.96631
 2018-Sep-25 14:33  m  16 08 17.703035 -50 45 30.89138
 2018-Sep-25 14:34  m  16 08 17.797823 -50 45 31.81721
 2018-Sep-25 14:35  m  16 08 17.892604 -50 45 32.74377
 2018-Sep-25 14:36  m  16 08 17.987377 -50 45 33.67108
 2018-Sep-25 14:37  m  16 08 18.082144 -50 45 34.59913
 2018-Sep-25 14:38  m  16 08 18.176903 -50 45 35.52793
 2018-Sep-25 14:39  m  16 08 18.271653 -50 45 36.45747
